STARLINK-37645          
1 69371U 26123U   26165.50003471 -.02099010  00000+0 -90542-2 0  9994
2 69371  53.1562 254.7928 0001196  60.3954  76.1307 15.87333785  2771
STARLINK-37688          
1 69372U 26123V   26165.50003471 -.02030956  00000+0 -90439-2 0  9994
2 69372  53.1563 254.7540 0001127  65.6866  89.1949 15.86588091  2774
STARLINK-37685          
1 69373U 26123W   26165.50003471 -.02165871  00000+0 -97723-2 0  9993
2 69373  53.1562 254.7467 0001353  73.8844  84.5440 15.86539455  2775
STARLINK-37632          
1 69374U 26123X   26165.50003471 -.01936985  00000+0 -86039-2 0  9993
2 69374  53.1561 254.7393 0001201  66.4928  95.4830 15.86489395  2722
STARLINK-37454          
1 69375U 26123Y   26165.50003471 -.02115529  00000+0 -95108-2 0  9995
2 69375  53.1561 254.7249 0001282  65.5356 103.2029 15.86530227  2861
STARLINK-37485          
1 69376U 26123Z   26165.50003471 -.02099595  00000+0 -94365-2 0  9994
2 69376  53.1560 254.7158 0001138  61.9227 111.0786 15.86511896  2865
STARLINK-37439          
1 69377U 26123AA  26165.50003471 -.02153262  00000+0 -88948-2 0  9997
2 69377  53.1554 254.6491 0001108  80.9749 124.0511 15.88281074  2724
STARLINK-37376          
1 69378U 26123AB  26165.50003471 -.02134797  00000+0 -91883-2 0  9992
2 69378  53.1557 254.6703 0001132  69.3646 125.3143 15.87436336  2860
STARLINK-37383          
1 69379U 26123AC  26165.50003471 -.02173487  00000+0 -90416-2 0  9993
2 69379  53.1549 254.6050 0001012  78.6668 147.1395 15.88176330  2868
STARLINK-37411          
1 69380U 26123AD  26165.50003471 -.02162807  00000+0 -93312-2 0  9997
2 69380  53.1556 254.6551 0001143  69.0812 132.6498 15.87433808  2862
STARLINK-37427          
1 69381U 26123AE  26165.50003471 -.02115060  00000+0 -86759-2 0  9994
2 69381  53.1553 254.6180 0001114  77.5601 142.1000 15.88358930  2774
QIANFAN-165             
1 69382U 26124A   26164.79833279  .00000097  00000+0  37879-4 0  9993
2 69382  88.9991   2.4245 0002400 151.4164 208.7159 14.21216415  1335
QIANFAN-166             
1 69383U 26124B   26165.07811851  .00000093  00000+0  36440-4 0  9997
2 69383  89.0014   2.3807 0002134 113.5942 246.5473 14.20451886  1379
QIANFAN-167             
1 69384U 26124C   26164.93664243  .00000096  00000+0  37433-4 0  9999
2 69384  88.9952   2.4146 0006338 194.5230 165.5780 14.21105494  1356
QIANFAN-168             
1 69385U 26124D   26164.93551425  .00000097  00000+0  37407-4 0  9999
2 69385  89.0066   2.3643 0002313 140.1786 219.9575 14.21872881  1355
QIANFAN-169             
1 69386U 26124E   26165.07536332  .00000095  00000+0  36067-4 0  9995
2 69386  89.0015   2.3915 0001034 310.2026  49.9074 14.22762892  1376
QIANFAN-170             
1 69387U 26124F   26165.07434800  .00000096  00000+0  36120-4 0  9994
2 69387  88.9994   2.3837 0002253 116.5235 243.6188 14.23171609  1377
QIANFAN-171             
1 69388U 26124G   26164.79100397 -.01724011  00000+0 -86631+0 0  9994
2 69388  88.9981   2.4235 0022197 187.5923 172.4935 14.20530017  1332
QIANFAN-172             
1 69389U 26124H   26164.85713411 -.01443543  00000+0 -61077+0 0  9994
2 69389  88.9977   2.4156 0003179 174.9675 185.1552 14.29008880  1347
QIANFAN-173             
1 69390U 26124J   26164.93278676  .00000100  00000+0  36702-4 0  9991
2 69390  89.0007   2.4092 0002163 158.8999 201.2283 14.24972369  1355
QIANFAN-174             
1 69391U 26124K   26165.00260734  .00000102  00000+0  36818-4 0  9997
2 69391  88.9983   2.3990 0002366 170.0899 190.0341 14.25618199  1363
QIANFAN-175             
1 69392U 26124L   26165.07272091  .00000101  00000+0  36310-4 0  9990
2 69392  88.9984   2.3909 0002750 177.2611 182.8598 14.25625629  1373
QIANFAN-176             
1 69393U 26124M   26165.49368286  .00000097  00000+0  34939-4 0  9998
2 69393  88.9983   2.3426 0001909 175.7797 184.3413 14.25634344  1434
QIANFAN-177             
1 69394U 26124N   26165.49318855  .00000023  00000+0  35781-5 0  9992
2 69394  88.9981   2.3424 0002924 161.1183 199.0119 14.25688564  1436
QIANFAN-178             
1 69395U 26124P   26165.49333176  .00000097  00000+0  34954-4 0  9997
2 69395  88.9983   2.3425 0002318 166.4629 193.6627 14.25625890  1437
QIANFAN-179             
1 69396U 26124Q   26164.86006002 -.01971323  00000+0 -94572+0 0  9992
2 69396  88.9978   2.4153 0004352 107.3109 252.8559 14.22997940  1345
QIANFAN-180             
1 69397U 26124R   26165.00131773  .00000103  00000+0  36823-4 0  9990
2 69397  88.9984   2.3989 0002341 170.3819 189.7420 14.26489166  1360
QIANFAN-181             
1 69398U 26124S   26165.15061606  .00000093  00000+0  36215-4 0  9997
2 69398  88.9983   2.3842 0002118 140.0514 220.0833 14.21115081  1382
QIANFAN-182             
1 69399U 26124T   26164.79367052  .00000100  00000+0  37156-4 0  9995
2 69399  88.9961   2.4186 0003044 159.9795 200.1517 14.24123720  1335
