OBJECT_NAME,OBJECT_ID,EPOCH,MEAN_MOTION,ECCENTRICITY,INCLINATION,RA_OF_ASC_NODE,ARG_OF_PERICENTER,MEAN_ANOMALY,EPHEMERIS_TYPE,CLASSIFICATION_TYPE,NORAD_CAT_ID,ELEMENT_SET_NO,REV_AT_EPOCH,BSTAR,MEAN_MOTION_DOT,MEAN_MOTION_DDOT
STARLINK-37645,2026-123U,2026-06-14T12:00:02.998944,15.87333785,.0001196,53.1562,254.7928,60.3954,76.1307,0,U,69371,999,277,-.90542E-2,-.209901E-1,0
STARLINK-37688,2026-123V,2026-06-14T12:00:02.998944,15.86588091,.0001127,53.1563,254.7540,65.6866,89.1949,0,U,69372,999,277,-.90439E-2,-.2030956E-1,0
STARLINK-37685,2026-123W,2026-06-14T12:00:02.998944,15.86539455,.0001353,53.1562,254.7467,73.8844,84.5440,0,U,69373,999,277,-.97723E-2,-.2165871E-1,0
STARLINK-37632,2026-123X,2026-06-14T12:00:02.998944,15.86489395,.0001201,53.1561,254.7393,66.4928,95.4830,0,U,69374,999,272,-.86039E-2,-.1936985E-1,0
STARLINK-37454,2026-123Y,2026-06-14T12:00:02.998944,15.86530227,.0001282,53.1561,254.7249,65.5356,103.2029,0,U,69375,999,286,-.95108E-2,-.2115529E-1,0
STARLINK-37485,2026-123Z,2026-06-14T12:00:02.998944,15.86511896,.0001138,53.1560,254.7158,61.9227,111.0786,0,U,69376,999,286,-.94365E-2,-.2099595E-1,0
STARLINK-37439,2026-123AA,2026-06-14T12:00:02.998944,15.88281074,.0001108,53.1554,254.6491,80.9749,124.0511,0,U,69377,999,272,-.88948E-2,-.2153262E-1,0
STARLINK-37376,2026-123AB,2026-06-14T12:00:02.998944,15.87436336,.0001132,53.1557,254.6703,69.3646,125.3143,0,U,69378,999,286,-.91883E-2,-.2134797E-1,0
STARLINK-37383,2026-123AC,2026-06-14T12:00:02.998944,15.88176330,.0001012,53.1549,254.6050,78.6668,147.1395,0,U,69379,999,286,-.90416E-2,-.2173487E-1,0
STARLINK-37411,2026-123AD,2026-06-14T12:00:02.998944,15.87433808,.0001143,53.1556,254.6551,69.0812,132.6498,0,U,69380,999,286,-.93312E-2,-.2162807E-1,0
STARLINK-37427,2026-123AE,2026-06-14T12:00:02.998944,15.88358930,.0001114,53.1553,254.6180,77.5601,142.1000,0,U,69381,999,277,-.86759E-2,-.211506E-1,0
QIANFAN-165,2026-124A,2026-06-13T19:09:35.953056,14.21216415,.00024,88.9991,2.4245,151.4164,208.7159,0,U,69382,999,133,.37879E-4,.97E-6,0
QIANFAN-166,2026-124B,2026-06-14T01:52:29.439264,14.20451886,.0002134,89.0014,2.3807,113.5942,246.5473,0,U,69383,999,137,.3644E-4,.93E-6,0
QIANFAN-167,2026-124C,2026-06-13T22:28:45.905952,14.21105494,.0006338,88.9952,2.4146,194.5230,165.5780,0,U,69384,999,135,.37433E-4,.96E-6,0
QIANFAN-168,2026-124D,2026-06-13T22:27:08.431200,14.21872881,.0002313,89.0066,2.3643,140.1786,219.9575,0,U,69385,999,135,.37407E-4,.97E-6,0
QIANFAN-169,2026-124E,2026-06-14T01:48:31.390848,14.22762892,.0001034,89.0015,2.3915,310.2026,49.9074,0,U,69386,999,137,.36067E-4,.95E-6,0
QIANFAN-170,2026-124F,2026-06-14T01:47:03.667200,14.23171609,.0002253,88.9994,2.3837,116.5235,243.6188,0,U,69387,999,137,.3612E-4,.96E-6,0
QIANFAN-171,2026-124G,2026-06-13T18:59:02.743008,14.20530017,.0022197,88.9981,2.4235,187.5923,172.4935,0,U,69388,999,133,-.86631143E+0,-.1724011E-1,0
QIANFAN-172,2026-124H,2026-06-13T20:34:16.387104,14.29008880,.0003179,88.9977,2.4156,174.9675,185.1552,0,U,69389,999,134,-.61076877E+0,-.1443543E-1,0
QIANFAN-173,2026-124J,2026-06-13T22:23:12.776064,14.24972369,.0002163,89.0007,2.4092,158.8999,201.2283,0,U,69390,999,135,.36702E-4,.1E-5,0
QIANFAN-174,2026-124K,2026-06-14T00:03:45.274176,14.25618199,.00023663,88.9983,2.3990,170.0899,190.0341,0,U,69391,999,136,.36817554E-4,.102E-5,0
QIANFAN-175,2026-124L,2026-06-14T01:44:43.086624,14.25625629,.00027504,88.9984,2.3909,177.2611,182.8598,0,U,69392,999,137,.36309812E-4,.101E-5,0
QIANFAN-176,2026-124M,2026-06-14T11:50:54.199104,14.25634344,.0001909,88.9983,2.3426,175.7797,184.3413,0,U,69393,999,143,.34939E-4,.97E-6,0
QIANFAN-177,2026-124N,2026-06-14T11:50:11.490720,14.25688564,.0002924,88.9981,2.3424,161.1183,199.0119,0,U,69394,999,143,.35781E-5,.23E-6,0
QIANFAN-178,2026-124P,2026-06-14T11:50:23.864064,14.25625890,.0002318,88.9983,2.3425,166.4629,193.6627,0,U,69395,999,143,.34954E-4,.97E-6,0
QIANFAN-179,2026-124Q,2026-06-13T20:38:29.185728,14.22997940,.00043527,88.9978,2.4153,107.3109,252.8559,0,U,69396,999,134,-.94571829E+0,-.1971323E-1,0
QIANFAN-180,2026-124R,2026-06-14T00:01:53.851872,14.26489166,.00023412,88.9984,2.3989,170.3819,189.7420,0,U,69397,999,136,.3682278E-4,.103E-5,0
QIANFAN-181,2026-124S,2026-06-14T03:36:53.227584,14.21115081,.00021189,88.9983,2.3842,140.0514,220.0833,0,U,69398,999,138,.36214652E-4,.93E-6,0
QIANFAN-182,2026-124T,2026-06-13T19:02:53.132928,14.24123720,.0003044,88.9961,2.4186,159.9795,200.1517,0,U,69399,999,133,.37156E-4,.1E-5,0
